{
  "type": "FeatureCollection",
  "features": [
    {
      "type": "Feature",
      "properties": {
        "norad_id": 27954,
        "name": "GALAXY 13 (HORIZONS-1)",
        "group": "intelsat",
        "lat": 0.9003924598700443,
        "lon": 163.34387217160938,
        "alt_km": 35785.41220133013,
        "timestamp": "2025-12-08T15:42:49.446035+00:00",
        "meta_object_name": "GALAXY 13 (HORIZONS-1)",
        "meta_object_id": "2003-044A",
        "meta_epoch": "2025-12-08T07:28:59.087136",
        "meta_mean_motion": 1.00269587,
        "meta_eccentricity": 0.0002058,
        "meta_inclination": 0.924,
        "meta_ra_of_asc_node": 86.5285,
        "meta_arg_of_pericenter": 159.2549,
        "meta_mean_anomaly": 153.7935,
        "meta_ephemeris_type": 0,
        "meta_classification_type": "U",
        "meta_norad_cat_id": 27954,
        "meta_element_set_no": 999,
        "meta_rev_at_epoch": 4465,
        "meta_bstar": 0,
        "meta_mean_motion_dot": 1.35e-06,
        "meta_mean_motion_ddot": 0,
        "tle_line1": "1 27954U 03044A   25342.31179499  .00000135  00000+0  00000+0 0  9994",
        "tle_line2": "2 27954   0.9240  86.5285 0002058 159.2549 153.7935  1.00269587 44658"
      },
      "geometry": {
        "type": "Point",
        "coordinates": [
          163.34387217160938,
          0.9003924598700443
        ]
      }
    },
    {
      "type": "Feature",
      "properties": {
        "norad_id": 28358,
        "name": "INTELSAT 10-02",
        "group": "intelsat",
        "lat": -0.03451873952144374,
        "lon": -47.605649518377625,
        "alt_km": 35780.387036472486,
        "timestamp": "2025-12-08T15:42:49.446047+00:00",
        "meta_object_name": "INTELSAT 10-02",
        "meta_object_id": "2004-022A",
        "meta_epoch": "2025-12-08T03:19:34.131072",
        "meta_mean_motion": 1.00274449,
        "meta_eccentricity": 0.00012914,
        "meta_inclination": 0.0347,
        "meta_ra_of_asc_node": 75.2621,
        "meta_arg_of_pericenter": 212.0256,
        "meta_mean_anomaly": 198.7772,
        "meta_ephemeris_type": 0,
        "meta_classification_type": "U",
        "meta_norad_cat_id": 28358,
        "meta_element_set_no": 999,
        "meta_rev_at_epoch": 7864,
        "meta_bstar": 0,
        "meta_mean_motion_dot": -8e-08,
        "meta_mean_motion_ddot": 0,
        "tle_line1": "1 28358U 04022A   25342.13858948 -.00000008  00000+0  00000+0 0  9993",
        "tle_line2": "2 28358   0.0347  75.2621 0001291 212.0256 198.7772  1.00274449 78643"
      },
      "geometry": {
        "type": "Point",
        "coordinates": [
          -47.605649518377625,
          -0.03451873952144374
        ]
      }
    },
    {
      "type": "Feature",
      "properties": {
        "norad_id": 28626,
        "name": "XM-3 (RHYTHM)",
        "group": "intelsat",
        "lat": 0.03911322911615645,
        "lon": 87.08641160916697,
        "alt_km": 36160.89937350957,
        "timestamp": "2025-12-08T15:42:49.446059+00:00",
        "meta_object_name": "XM-3 (RHYTHM)",
        "meta_object_id": "2005-008A",
        "meta_epoch": "2025-12-08T07:23:57.897600",
        "meta_mean_motion": 0.9895411,
        "meta_eccentricity": 0.00013053,
        "meta_inclination": 0.1631,
        "meta_ra_of_asc_node": 81.1205,
        "meta_arg_of_pericenter": 262.5344,
        "meta_mean_anomaly": 340.0089,
        "meta_ephemeris_type": 0,
        "meta_classification_type": "U",
        "meta_norad_cat_id": 28626,
        "meta_element_set_no": 999,
        "meta_rev_at_epoch": 4070,
        "meta_bstar": 0,
        "meta_mean_motion_dot": -2.57e-06,
        "meta_mean_motion_ddot": 0,
        "tle_line1": "1 28626U 05008A   25342.30830900 -.00000257  00000+0  00000+0 0  9999",
        "tle_line2": "2 28626   0.1631  81.1205 0001305 262.5344 340.0089  0.98954110 40701"
      },
      "geometry": {
        "type": "Point",
        "coordinates": [
          87.08641160916697,
          0.03911322911615645
        ]
      }
    },
    {
      "type": "Feature",
      "properties": {
        "norad_id": 28659,
        "name": "DIRECTV 8",
        "group": "intelsat",
        "lat": -0.01340383964344482,
        "lon": -165.72156942425798,
        "alt_km": 35780.808157154715,
        "timestamp": "2025-12-08T15:42:49.446071+00:00",
        "meta_object_name": "DIRECTV 8",
        "meta_object_id": "2005-019A",
        "meta_epoch": "2025-12-08T05:50:38.546880",
        "meta_mean_motion": 1.00271579,
        "meta_eccentricity": 0.00032192,
        "meta_inclination": 0.0167,
        "meta_ra_of_asc_node": 0.7115,
        "meta_arg_of_pericenter": 260.6499,
        "meta_mean_anomaly": 144.5052,
        "meta_ephemeris_type": 0,
        "meta_classification_type": "U",
        "meta_norad_cat_id": 28659,
        "meta_element_set_no": 999,
        "meta_rev_at_epoch": 7515,
        "meta_bstar": 0,
        "meta_mean_motion_dot": 4e-08,
        "meta_mean_motion_ddot": 0,
        "tle_line1": "1 28659U 05019A   25342.24350170  .00000004  00000+0  00000+0 0  9995",
        "tle_line2": "2 28659   0.0167   0.7115 0003219 260.6499 144.5052  1.00271579 75152"
      },
      "geometry": {
        "type": "Point",
        "coordinates": [
          -165.72156942425798,
          -0.01340383964344482
        ]
      }
    },
    {
      "type": "Feature",
      "properties": {
        "norad_id": 28702,
        "name": "GALAXY 28 (G-28)",
        "group": "intelsat",
        "lat": 1.6576864907312319,
        "lon": -135.30460398475986,
        "alt_km": 35776.692657974236,
        "timestamp": "2025-12-08T15:42:49.446083+00:00",
        "meta_object_name": "GALAXY 28 (G-28)",
        "meta_object_id": "2005-022A",
        "meta_epoch": "2025-12-08T06:07:07.800960",
        "meta_mean_motion": 1.00271364,
        "meta_eccentricity": 0.00026645,
        "meta_inclination": 2.8072,
        "meta_ra_of_asc_node": 81.3344,
        "meta_arg_of_pericenter": 177.658,
        "meta_mean_anomaly": 181.3705,
        "meta_ephemeris_type": 0,
        "meta_classification_type": "U",
        "meta_norad_cat_id": 28702,
        "meta_element_set_no": 999,
        "meta_rev_at_epoch": 5005,
        "meta_bstar": 0,
        "meta_mean_motion_dot": -1.85e-06,
        "meta_mean_motion_ddot": 0,
        "tle_line1": "1 28702U 05022A   25342.25495140 -.00000185  00000+0  00000+0 0  9997",
        "tle_line2": "2 28702   2.8072  81.3344 0002664 177.6580 181.3705  1.00271364 50054"
      },
      "geometry": {
        "type": "Point",
        "coordinates": [
          -135.30460398475986,
          1.6576864907312319
        ]
      }
    },
    {
      "type": "Feature",
      "properties": {
        "norad_id": 29236,
        "name": "GALAXY 16 (G-16)",
        "group": "intelsat",
        "lat": 2.4689339743481656e-05,
        "lon": -145.6725933385994,
        "alt_km": 35775.430183930286,
        "timestamp": "2025-12-08T15:42:49.446095+00:00",
        "meta_object_name": "GALAXY 16 (G-16)",
        "meta_object_id": "2006-023A",
        "meta_epoch": "2025-12-08T06:03:54.608832",
        "meta_mean_motion": 1.00273466,
        "meta_eccentricity": 0.00029586,
        "meta_inclination": 0.0218,
        "meta_ra_of_asc_node": 153.6673,
        "meta_arg_of_pericenter": 96.1223,
        "meta_mean_anomaly": 179.435,
        "meta_ephemeris_type": 0,
        "meta_classification_type": "U",
        "meta_norad_cat_id": 29236,
        "meta_element_set_no": 999,
        "meta_rev_at_epoch": 7105,
        "meta_bstar": 0,
        "meta_mean_motion_dot": -1.24e-06,
        "meta_mean_motion_ddot": 0,
        "tle_line1": "1 29236U 06023A   25342.25271538 -.00000124  00000+0  00000+0 0  9998",
        "tle_line2": "2 29236   0.0218 153.6673 0002958  96.1223 179.4350  1.00273466 71054"
      },
      "geometry": {
        "type": "Point",
        "coordinates": [
          -145.6725933385994,
          2.4689339743481656e-05
        ]
      }
    },
    {
      "type": "Feature",
      "properties": {
        "norad_id": 29494,
        "name": "DIRECTV 9S",
        "group": "intelsat",
        "lat": 1.485658329520011,
        "lon": -147.862535537083,
        "alt_km": 35777.057434460134,
        "timestamp": "2025-12-08T15:42:49.446107+00:00",
        "meta_object_name": "DIRECTV 9S",
        "meta_object_id": "2006-043A",
        "meta_epoch": "2025-12-08T06:00:20.118240",
        "meta_mean_motion": 1.00270613,
        "meta_eccentricity": 0.00032124,
        "meta_inclination": 1.9284,
        "meta_ra_of_asc_node": 83.2534,
        "meta_arg_of_pericenter": 176.5091,
        "meta_mean_anomaly": 166.3686,
        "meta_ephemeris_type": 0,
        "meta_classification_type": "U",
        "meta_norad_cat_id": 29494,
        "meta_element_set_no": 999,
        "meta_rev_at_epoch": 4946,
        "meta_bstar": 0,
        "meta_mean_motion_dot": -1.11e-06,
        "meta_mean_motion_ddot": 0,
        "tle_line1": "1 29494U 06043A   25342.25023285 -.00000111  00000+0  00000+0 0  9996",
        "tle_line2": "2 29494   1.9284  83.2534 0003212 176.5091 166.3686  1.00270613 49465"
      },
      "geometry": {
        "type": "Point",
        "coordinates": [
          -147.862535537083,
          1.485658329520011
        ]
      }
    }
  ]
}